NORAD_CAT_ID,OBJECT_NAME,OBJECT_TYPE,EPOCH,MEAN_MOTION,ECCENTRICITY,INCLINATION,RA_OF_ASC_NODE,ARG_OF_PERICENTER,MEAN_ANOMALY,BSTAR,MEAN_MOTION_DOT,MEAN_MOTION_DDOT,TLE_LINE0,TLE_LINE1,TLE_LINE2,SEMIMAJOR_AXIS,PERIOD,APOGEE,PERIGEE,DECAYED
52677.0,STARLINK-4028,PAYLOAD,2023-04-20 06:47:04,15.08825724,0.0001708,53.2174,197.5369,96.4389,263.6798,-9.7302e-05,-1.836e-05,0.0,0 STARLINK-4028,1 52677U 22053X   23110.28268629 -.00001836  00000-0 -97302-4 0  9994,2 52677  53.2174 197.5369 0001708  96.4389 263.6798 15.08825724 51971,6917.924,95.438,540.971,538.607,0.0
52677.0,STARLINK-4028,PAYLOAD,2023-04-20 13:08:36,15.08831842,0.0001362,53.2167,196.3476,85.3055,274.8092,0.00030441,4.559e-05,0.0,0 STARLINK-4028,1 52677U 22053X   23110.54764765  .00004559  00000-0  30441-3 0  9998,2 52677  53.2167 196.3476 0001362  85.3055 274.8092 15.08831842 51601,6917.905,95.438,540.713,538.828,0.0
52677.0,STARLINK-4028,PAYLOAD,2023-04-21 08:13:14,15.08840165,0.0001463,53.2167,192.78,81.8833,278.2325,0.00062015,9.596e-05,0.0,0 STARLINK-4028,1 52677U 22053X   23111.34253255  .00009596  00000-0  62015-3 0  9992,2 52677  53.2167 192.7800 0001463  81.8833 278.2325 15.08840165 52133,6917.88,95.438,540.757,538.733,0.0
52677.0,STARLINK-4028,PAYLOAD,2023-04-21 14:34:47,15.08849391,0.000153,53.217,191.5908,80.0302,280.0863,0.00076039,0.00011837,0.0,0 STARLINK-4028,1 52677U 22053X   23111.60749104  .00011837  00000-0  76039-3 0  9996,2 52677  53.2170 191.5908 0001530  80.0302 280.0863 15.08849391 51766,6917.852,95.437,540.775,538.658,0.0
52677.0,STARLINK-4028,PAYLOAD,2023-04-21 22:31:42,15.08849528,0.0001137,53.2149,190.1032,69.6222,290.4892,0.00062078,9.608e-05,0.0,0 STARLINK-4028,1 52677U 22053X   23111.93868970  .00009608  00000-0  62078-3 0  9996,2 52677  53.2149 190.1032 0001137  69.6222 290.4892 15.08849528 52223,6917.851,95.437,540.503,538.93,0.0
52677.0,STARLINK-4028,PAYLOAD,2023-04-22 14:25:34,15.08848637,0.0001579,53.2154,187.1301,72.8196,287.2969,0.00038348,5.822e-05,0.0,0 STARLINK-4028,1 52677U 22053X   23112.60108987  .00005822  00000-0  38348-3 0  9993,2 52677  53.2154 187.1301 0001579  72.8196 287.2969 15.08848637 51914,6917.854,95.437,540.811,538.627,0.0
52677.0,STARLINK-4028,PAYLOAD,2023-04-22 22:22:29,15.08843329,0.0001056,53.2146,185.6434,64.4977,295.6124,0.00017207,2.452e-05,0.0,0 STARLINK-4028,1 52677U 22053X   23112.93228901  .00002452  00000-0  17207-3 0  9995,2 52677  53.2146 185.6434 0001056  64.4977 295.6124 15.08843329 52379,6917.87,95.437,540.466,539.005,0.0
52677.0,STARLINK-4028,PAYLOAD,2023-04-23 15:51:44,15.08845158,0.0001279,53.2157,182.3716,80.9957,279.118,0.00024321,3.585e-05,0.0,0 STARLINK-4028,1 52677U 22053X   23113.66093174  .00003585  00000-0  24321-3 0  9991,2 52677  53.2157 182.3716 0001279  80.9957 279.1180 15.08845158 52489,6917.865,95.437,540.614,538.845,0.0
52677.0,STARLINK-4028,PAYLOAD,2023-04-24 04:34:48,15.08881746,0.0001381,53.2156,179.9923,83.4134,276.7015,0.0012604,0.00019851,0.0,0 STARLINK-4028,1 52677U 22053X   23114.19084475  .00019851  00000-0  12604-2 0  9997,2 52677  53.2156 179.9923 0001381  83.4134 276.7015 15.08881746 52156,6917.753,95.435,540.573,538.662,0.0
52677.0,STARLINK-4028,PAYLOAD,2023-04-24 14:07:06,15.08894801,0.0001361,53.2133,178.2099,62.3325,297.7805,0.0016867,0.00026698,0.0,0 STARLINK-4028,1 52677U 22053X   23114.58827387  .00026698  00000-0  16867-2 0  9999,2 52677  53.2133 178.2099 0001361  62.3325 297.7805 15.08894801 52621,6917.713,95.434,540.519,538.636,0.0
52677.0,STARLINK-4028,PAYLOAD,2023-04-25 10:47:09,15.08794644,0.0001165,53.2154,174.3422,97.6722,262.4402,-0.0011304,-0.0001821,0.0,0 STARLINK-4028,1 52677U 22053X   23115.44942000 -.00018210  00000-0 -11304-2 0  9999,2 52677  53.2154 174.3422 0001165  97.6722 262.4402 15.08794644 52340,6918.019,95.44,540.69,539.078,0.0
52677.0,STARLINK-4028,PAYLOAD,2023-04-25 13:57:56,15.08797648,0.0001164,53.2153,173.7484,102.9152,257.197,-0.00083685,-0.00013566,0.0,0 STARLINK-4028,1 52677U 22053X   23115.58190556 -.00013566  00000-0 -83685-3 0  9996,2 52677  53.2153 173.7484 0001164 102.9152 257.1970 15.08797648 52771,6918.01,95.44,540.68,539.07,0.0
52677.0,STARLINK-4028,PAYLOAD,2023-04-26 10:37:57,15.0882464,0.0001325,53.2158,169.8769,104.5658,255.5481,0.00037481,5.68e-05,0.0,0 STARLINK-4028,1 52677U 22053X   23116.44302918  .00005680  00000-0  37481-3 0  9998,2 52677  53.2158 169.8769 0001325 104.5658 255.5481 15.08824640 52903,6917.927,95.439,540.709,538.876,0.0
52677.0,STARLINK-4028,PAYLOAD,2023-04-26 20:10:16,15.08836806,0.0001413,53.2158,168.0961,105.3547,254.7601,0.00088665,0.0001385,0.0,0 STARLINK-4028,1 52677U 22053X   23116.84047302  .00013850  00000-0  88665-3 0  9993,2 52677  53.2158 168.0961 0001413 105.3547 254.7601 15.08836806 52960,6917.89,95.438,540.733,538.778,0.0
52677.0,STARLINK-4028,PAYLOAD,2023-04-27 08:53:21,15.08866614,0.0001398,53.2153,165.7175,112.4602,247.6539,0.00087211,0.00013629,0.0,0 STARLINK-4028,1 52677U 22053X   23117.37038607  .00013629  00000-0  87211-3 0  9990,2 52677  53.2153 165.7175 0001398 112.4602 247.6539 15.08866614 52634,6917.799,95.436,540.631,538.697,0.0
52677.0,STARLINK-4028,PAYLOAD,2023-04-28 11:54:53,15.08858614,0.000141,53.2154,160.6619,109.4662,250.6483,8.5668e-05,1.076e-05,0.0,0 STARLINK-4028,1 52677U 22053X   23118.49645222  .00001076  00000-0  85668-4 0  9999,2 52677  53.2154 160.6619 0001410 109.4662 250.6483 15.08858614 52801,6917.823,95.436,540.664,538.713,0.0
52677.0,STARLINK-4028,PAYLOAD,2023-04-28 19:51:49,15.08851269,0.0001361,53.215,159.176,100.1313,259.9833,-2.9072e-05,-7.51e-06,0.0,0 STARLINK-4028,1 52677U 22053X   23118.82765308 -.00000751  00000-0 -29072-4 0  9992,2 52677  53.2150 159.1760 0001361 100.1313 259.9833 15.08851269 52858,6917.846,95.437,540.652,538.769,0.0
52677.0,STARLINK-4028,PAYLOAD,2023-04-29 11:45:40,15.08850023,0.0001405,53.2164,156.2018,103.7963,256.3186,-5.7418e-05,-1.202e-05,0.0,0 STARLINK-4028,1 52677U 22053X   23119.49005165 -.00001202  00000-0 -57418-4 0  9991,2 52677  53.2164 156.2018 0001405 103.7963 256.3186 15.08850023 53362,6917.85,95.437,540.687,538.743,0.0
52677.0,STARLINK-4028,PAYLOAD,2023-04-30 11:36:28,15.08840175,0.00014,53.2174,151.7399,99.8003,260.3147,-3.0606e-05,-7.75e-06,0.0,0 STARLINK-4028,1 52677U 22053X   23120.48366007 -.00000775  00000-0 -30606-4 0  9991,2 52677  53.2174 151.7399 0001400  99.8003 260.3147 15.08840175 53101,6917.88,95.438,540.713,538.776,0.0
52677.0,STARLINK-4028,PAYLOAD,2023-05-01 11:27:14,15.08842699,0.0001425,53.2181,147.2783,107.1173,252.9975,7.9378e-05,9.76e-06,0.0,0 STARLINK-4028,1 52677U 22053X   23121.47725540  .00000976  00000-0  79378-4 0  9992,2 52677  53.2181 147.2783 0001425 107.1173 252.9975 15.08842699 53664,6917.872,95.437,540.723,538.751,0.0
52677.0,STARLINK-4028,PAYLOAD,2023-05-01 13:02:37,15.08843973,0.0001409,53.2178,146.9814,106.124,253.9907,8.5819e-05,1.078e-05,0.0,0 STARLINK-4028,1 52677U 22053X   23121.54349423  .00001078  00000-0  85819-4 0  9993,2 52677  53.2178 146.9814 0001409 106.1240 253.9907 15.08843973 53265,6917.868,95.437,540.708,538.759,0.0
52677.0,STARLINK-4028,PAYLOAD,2023-05-02 12:53:24,15.08844438,0.0001347,53.2169,142.5223,97.1163,262.9983,0.00011932,1.612e-05,0.0,0 STARLINK-4028,1 52677U 22053X   23122.53709386  .00001612  00000-0  11932-3 0  9999,2 52677  53.2169 142.5223 0001347  97.1163 262.9983 15.08844438 53828,6917.867,95.437,540.664,538.8,0.0
52677.0,STARLINK-4028,PAYLOAD,2023-05-03 04:47:16,15.08836891,0.0001441,53.2167,139.5486,108.6905,251.4243,2.0705e-05,4.2e-07,0.0,0 STARLINK-4028,1 52677U 22053X   23123.19950120  .00000042  00000-0  20705-4 0  9991,2 52677  53.2167 139.5486 0001441 108.6905 251.4243 15.08836891 53512,6917.89,95.438,540.752,538.758,0.0
52677.0,STARLINK-4028,PAYLOAD,2023-05-03 11:08:49,15.08839185,0.0001294,53.2165,138.3614,112.4013,247.7116,2.3237e-05,8.2e-07,0.0,0 STARLINK-4028,1 52677U 22053X   23123.46445912  .00000082  00000-0  23237-4 0  9996,2 52677  53.2165 138.3614 0001294 112.4013 247.7116 15.08839185 53964,6917.883,95.438,540.643,538.853,0.0
52677.0,STARLINK-4028,PAYLOAD,2023-05-04 09:24:13,15.08835664,0.0001395,53.2177,134.2006,102.338,257.7769,4.2546e-06,-2.2e-06,0.0,0 STARLINK-4028,1 52677U 22053X   23124.39182390 -.00000220  00000-0  42546-5 0  9997,2 52677  53.2177 134.2006 0001395 102.3380 257.7769 15.08835664 53697,6917.894,95.438,540.724,538.794,0.0
52677.0,STARLINK-4028,PAYLOAD,2023-05-05 17:11:56,15.08837833,0.0001205,53.2164,128.2508,92.8237,267.2893,5.7182e-05,6.22e-06,0.0,0 STARLINK-4028,1 52677U 22053X   23125.71662390  .00000622  00000-0  57182-4 0  9993,2 52677  53.2164 128.2508 0001205  92.8237 267.2893 15.08837833 53893,6917.887,95.438,540.586,538.918,0.0
52677.0,STARLINK-4028,PAYLOAD,2023-05-06 09:05:47,15.08842279,0.0001196,53.2161,125.2769,90.0361,270.0769,0.00010804,1.432e-05,0.0,0 STARLINK-4028,1 52677U 22053X   23126.37902222  .00001432  00000-0  10804-3 0  9996,2 52677  53.2161 125.2769 0001196  90.0361 270.0769 15.08842279 54405,6917.873,95.437,540.566,538.911,0.0
52677.0,STARLINK-4028,PAYLOAD,2023-05-06 23:24:16,15.08839841,0.0001195,53.2161,122.5999,89.4182,270.6947,3.9018e-05,3.33e-06,0.0,0 STARLINK-4028,1 52677U 22053X   23126.97518621  .00000333  00000-0  39018-4 0  9996,2 52677  53.2161 122.5999 0001195  89.4182 270.6947 15.08839841 54081,6917.881,95.438,540.573,538.919,0.0
52677.0,STARLINK-4028,PAYLOAD,2023-05-07 07:21:11,15.08843089,0.0001189,53.2161,121.1131,89.6487,270.4642,6.0991e-05,6.83e-06,0.0,0 STARLINK-4028,1 52677U 22053X   23127.30638349  .00000683  00000-0  60991-4 0  9996,2 52677  53.2161 121.1131 0001189  89.6487 270.4642 15.08843089 54547,6917.871,95.437,540.558,538.913,0.0
52677.0,STARLINK-4028,PAYLOAD,2023-05-08 04:01:12,15.08839722,0.0001186,53.2162,117.2471,89.5421,270.5707,5.5124e-05,5.9e-06,0.0,0 STARLINK-4028,1 52677U 22053X   23128.16750561  .00000590  00000-0  55124-4 0  9991,2 52677  53.2162 117.2471 0001186  89.5421 270.5707 15.08839722 54266,6917.881,95.438,540.567,538.926,0.0
